ESTCUBE 1               
1 39161U 13021C   22018.75113575  .00000498  00000+0  85776-4 0  9991
2 39161  97.9247  99.8313 0009380 173.4762 186.6566 14.72640065467430
FENGYUN 3C              
1 39260U 13052A   22018.74117588  .00000056  00000+0  49285-4 0  9997
2 39260  98.4741  54.2993 0011026 352.7234   7.3775 14.15894783430739
CASSIOPE                
1 39265U 13055A   22018.57824960  .00008730  00000+0  23670-3 0  9991
2 39265  80.9649  65.8259 0638552  41.3049 323.4651 14.34950859430816
ZACUBE-1 (TSHEPISOSAT)  
1 39417U 13066B   22018.81876512  .00000854  00000+0  11152-3 0  9990
2 39417  97.6182 357.3077 0058452 173.7152 186.4808 14.81780085440961
CINEMA-3 (KHUSAT-2)     
1 39426U 13066L   22018.80327971  .00000812  00000+0  13320-3 0  9992
2 39426  97.7839 325.4170 0103853 356.0511   3.9865 14.69837934437551
TRITON-1                
1 39427U 13066M   22018.79203701  .00001202  00000+0  19630-3 0  9999
2 39427  97.8008 321.2764 0113549  23.5998 337.0359 14.68470668437018
DELFI-N3XT              
1 39428U 13066N   22018.57981818  .00001917  00000+0  30531-3 0  9994
2 39428  97.8034 319.5876 0120085  37.3032 323.6438 14.68374678436536
GOMX-1                  
1 39430U 13066Q   22018.70560827  .00000477  00000+0  94157-4 0  9990
2 39430  97.8163 294.4354 0150427 156.3115 204.5116 14.59811742434447
BRITE-PL1 (LEM)         
1 39431U 13066R   22018.55323068  .00000298  00000+0  73839-4 0  9993
2 39431  97.7201 245.4010 0201359 333.3759  25.7204 14.47215493430688
ICUBE-1                 
1 39432U 13066S   22018.77963700  .00001644  00000+0  16908-3 0  9990
2 39432  97.4689  30.4085 0032698  46.3598 314.0324 14.91226546443603
HUMSAT-D                
1 39433U 13066T   22018.77437152  .00002039  00000+0  19782-3 0  9990
2 39433  97.4565  37.7736 0030599  23.7351 336.5273 14.93354973444054
VELOX-PII               
1 39438U 13066Y   22018.47372175  .00000782  00000+0  11006-3 0  9999
2 39438  97.6721 347.9066 0068915 224.2074 135.3619 14.78441052438847
FIRST-MOVE              
1 39439U 13066Z   22018.47716678  .00001801  00000+0  21949-3 0  9990
2 39439  97.6212 358.9400 0064182 171.5508 188.6803 14.83109527439813
CUBEBUG-2 (LO-74)       
1 39440U 13066AA  22018.43802624  .00001025  00000+0  14738-3 0  9991
2 39440  97.7066 342.5455 0078018 257.9949 101.2509 14.76499406438142
NEE-02 KRYSAOR          
1 39441U 13066AB  22018.79395382  .00000724  00000+0  10882-3 0  9990
2 39441  97.7174 340.1416 0079702 269.5219  89.6857 14.75368786439123
FUNCUBE-1 (AO-73)       
1 39444U 13066AE  22018.46551766  .00001148  00000+0  14440-3 0  9992
2 39444  97.6070 359.3635 0057670 164.0337 196.2712 14.82739017439295
HINCUBE                 
1 39445U 13066AF  22018.49834778  .00001059  00000+0  13434-3 0  9996
2 39445  97.6085 359.2291 0057676 165.9413 194.3423 14.82560874439246
UWE-3                   
1 39446U 13066AG  22018.44760051  .00000902  00000+0  12417-3 0  9990
2 39446  97.6658 349.2422 0068353 217.4701 142.1736 14.79038884438283
AIST-1 (RS-41)          
1 39492U 13078C   22018.72719392  .00000596  00000+0  61858-4 0  9990
2 39492  82.4182  19.8507 0018158 240.8213 119.1194 14.88168266437513
SPROUT                  
1 39770U 14029E   22018.62193779  .00003548  00000+0  38109-3 0  9992
2 39770  97.9298 135.0093 0008615 208.0076 152.0808 14.89193367415359
UNISAT-6                
1 40012U 14033C   22018.49865794  .00000852  00000+0  13237-3 0  9996
2 40012  97.6615 214.4848 0056575 284.9924  74.5027 14.74510378407882
BUGSAT-1 (TITA)         
1 40014U 14033E   22018.54598595  .00001510  00000+0  13887-3 0  9999
2 40014  98.1323  10.9957 0030932 170.6851 189.4938 14.96060100413729
DUCHIFAT-1              
1 40021U 14033M   22018.81421847  .00001911  00000+0  19495-3 0  9998
2 40021  97.9969 326.5980 0012748 167.6052 192.5482 14.91822696412387
NANOSATC-BR1            
1 40024U 14033Q   22018.57885956  .00001809  00000+0  18944-3 0  9993
2 40024  97.9720 320.4719 0011951 174.6454 185.4894 14.90841308411643
QB50P1                  
1 40025U 14033R   22018.57827793  .00001406  00000+0  15240-3 0  9998
2 40025  97.9499 315.0181 0012015 184.2281 175.8837 14.89775633411440
DTUSAT-2                
1 40030U 14033W   22018.78207818  .00001184  00000+0  13078-3 0  9997
2 40030  97.9295 311.1211 0011596 179.6926 180.4300 14.89297891411877
QB50P2                  
1 40032U 14033Y   22018.54942233  .00001298  00000+0  14294-3 0  9997
2 40032  97.9302 310.8984 0011485 181.4805 178.6380 14.89261035411301
POLYITAN-1              
1 40042U 14033AJ  22018.38522132  .00001757  00000+0  18946-3 0  9990
2 40042  97.9598 315.8356 0014369 177.3979 182.7316 14.89653666411307
TIGRISAT                
1 40043U 14033AK  22018.49288275  .00000674  00000+0  10565-3 0  9996
2 40043  97.6570 215.8344 0058236 282.5413  76.9287 14.74692161407521
AISAT                   
1 40054U 14034B   22018.40382261  .00001762  00000+0  24677-3 0  9998
2 40054  98.3422 184.0608 0013686  77.3820 282.8920 14.78830406407295
CANX-4                  
1 40055U 14034C   22018.65191191  .00000471  00000+0  77712-4 0  9991
2 40055  98.3327 170.9347 0015332 113.1481 247.1344 14.75177587406661
CANX-5                  
1 40056U 14034D   22018.38648110  .00000495  00000+0  81277-4 0  9997
2 40056  98.3327 170.6443 0015342 114.1517 246.1297 14.75170484397404
VELOX-I                 
1 40057U 14034E   22018.70618916  .00001158  00000+0  16618-3 0  9998
2 40057  98.3469 185.4897 0011959  89.4960 270.7648 14.78490182407346
METEOR-M 2              
1 40069U 14037A   22018.73475661  .00000013  00000+0  25109-4 0  9990
2 40069  98.4437  43.2838 0006589  45.7889 314.3824 14.20695541390603
DX1                     
1 40071U 14037C   22018.69254139  .00000422  00000+0  61092-4 0  9998
2 40071  98.4284 239.8018 0009700  78.8890 281.3413 14.81626339407169
UKUBE-1                 
1 40074U 14037F   22018.64082122  .00001072  00000+0  13326-3 0  9995
2 40074  98.4018 251.3379 0005510  57.5880 302.5865 14.84835955407834
FIREBIRD 3              
1 40377U 15003B   22018.77964179  .00012119  00000+0  40930-3 0  9995
2 40377  99.1118 210.8442 0111050 169.8627 190.4882 15.25073065385585
FIREBIRD 4              
1 40378U 15003C   22018.48531703  .00014885  00000+0  50058-3 0  9991
2 40378  99.1122 210.6655 0111057 170.6030 189.7317 15.25135288385535
GRIFEX                  
1 40379U 15003D   22018.76340220  .00010032  00000+0  38477-3 0  9996
2 40379  99.1145 198.3903 0122966 207.4913 151.9777 15.19929327384874
CP10 (EXOCUBE)          
1 40380U 15003E   22018.44749406  .00008026  00000+0  32874-3 0  9997
2 40380  99.1178 191.5216 0129125 230.3041 128.6746 15.17278582384397
DEORBITSAIL             
1 40719U 15032E   22018.55958051  .00001407  00000+0  20276-3 0  9994
2 40719  97.8026 261.7787 0017037 127.2983 232.9784 14.77723532351749
NUDT-PHONESAT           
1 40900U 15049B   22018.76707315  .00013641  00000+0  48240-3 0  9996
2 40900  97.4127  36.7094 0013038  97.3611  18.8098 15.29208323351699
XW-2A                   
1 40903U 15049E   22018.85603700  .00013017  00000+0  25101-3 0  9990
2 40903  97.2081  77.6213 0010216 314.4672 162.2279 15.47911812356088
XW-2C                   
1 40906U 15049H   22018.91270625  .00003324  00000+0  16889-3 0  9999
2 40906  97.4913  23.7314 0014804 152.6000 270.1560 15.17487238350235
XW-2D                   
1 40907U 15049J   22018.92179075  .00003880  00000+0  19424-3 0  9993
2 40907  97.4904  23.6223 0014235 148.4270 275.8678 15.17909804350278
LILACSAT-2              
1 40908U 15049K   22018.91458865  .00002066  00000+0  11433-3 0  9997
2 40908  97.5122  21.1288 0015690 168.0877 252.4912 15.14878588349847
XW-2E                   
1 40909U 15049L   22018.83376060  .00005604  00000+0  25679-3 0  9993
2 40909  97.4667  27.8138 0014113 133.4703 305.2656 15.20785288350655
XW-2F                   
1 40910U 15049M   22018.71763493  .00005410  00000+0  25163-3 0  9995
2 40910  97.4743  26.8024 0015193 133.7504 342.8146 15.20275368350414
XW-2B                   
1 40911U 15049N   22018.87475355  .00003685  00000+0  18513-3 0  9993
2 40911  97.4889  24.2189 0014295 150.4756 294.1165 15.17815509350151
KAITUO 1B               
1 40912U 15049P   22018.86636447  .00006571  00000+0  28169-3 0  9999
2 40912  97.4417  31.3241 0015441 104.0509 339.8307 15.22983522350963
TIANWANG 1A (TW-1A)     
1 40928U 15051D   22018.85176044  .00020814  00000+0  37222-3 0  9996
2 40928  97.0603  43.8598 0007365 211.3365 229.5139 15.49997935355004
LAPAN-A2                
1 40931U 15052B   22018.79096012  .00000917  00000+0  38513-4 0  9997
2 40931   5.9949 156.5300 0013459 215.8456 144.0786 14.76721614341184
LQSAT                   
1 40958U 15057A   22018.71638236  .00000166  00000+0  32984-4 0  9995
2 40958  97.7746  71.4642 0019576  83.5080 276.8355 14.73239877337936
ATHENOXAT 1             
1 41168U 15077C   22018.62593903  .00008793  00000+0  39203-3 0  9996
2 41168  14.9924 117.5035 0012212 303.3455  95.3728 15.17288682337492
GALASSIA                
1 41170U 15077E   22018.58270682  .00007121  00000+0  31080-3 0  9999
2 41170  14.9890 108.1822 0011481 328.3894  31.5738 15.17318449337564
VELOX-II                
1 41171U 15077F   22018.75747467  .00005203  00000+0  24435-3 0  9994
2 41171  14.9898 173.0947 0008275 183.6859 176.3402 15.13554077336944
CHUBUSAT-2              
1 41338U 16012B   22018.38143369  .00001363  00000+0  98043-4 0  9999
2 41338  31.0021 258.9793 0013347 104.4740 255.7377 15.00799367324911
CHUBUSAT-3              
1 41339U 16012C   22018.78364314  .00001169  00000+0  82910-4 0  9999
2 41339  31.0116 253.4473 0013049 115.7585 244.4425 15.00924372324974
HORYU-4                 
1 41340U 16012D   22017.99489191  .00002193  00000+0  15529-3 0  9993
2 41340  31.0034 239.2170 0013430 144.9956 215.1565 15.02339531325072
